GLOBALSTAR M075         
1 37192U 10054E   24209.45445163 -.00000091  00000+0  71687-4 0  9994
2 37192  51.9950  90.2774 0000638  60.3817 111.3018 12.62262126635362
GLOBALSTAR M073         
1 37193U 10054F   24209.50550072 -.00000100  00000+0  18508-4 0  9991
2 37193  52.0083   3.6940 0000840  85.4888 317.3057 12.62267305636889
GLOBALSTAR M083         
1 37739U 11033A   24209.44660674 -.00000087  00000+0  94675-4 0  9991
2 37739  51.9876 313.0483 0000536 131.9904 304.6481 12.62262742606204
GLOBALSTAR M088         
1 37740U 11033B   24209.26330838 -.00000097  00000+0  35171-4 0  9996
2 37740  51.9704 219.3699 0000152 214.7076 228.8466 12.62265619601365
GLOBALSTAR M091         
1 37741U 11033C   24209.18234005 -.00000088  00000+0  89111-4 0  9990
2 37741  51.9973 182.5912 0000187 265.4261 108.4292 12.62264997602145
GLOBALSTAR M085         
1 37742U 11033D   24209.03645421 -.00000076  00000+0  15385-3 0  9991
2 37742  51.9863 134.3598 0000264  23.1494 108.8861 12.62263704602637
GLOBALSTAR M081         
1 37743U 11033E   24209.54710080 -.00000088  00000+0  86023-4 0  9993
2 37743  51.9952 135.3923 0000471   2.9840 170.0395 12.62267136603222
GLOBALSTAR M089         
1 37744U 11033F   24208.76633435 -.00000079  00000+0  13959-3 0  9992
2 37744  51.9931  92.0613 0000984  48.6890 353.1882 12.62266392603594
